[{"OBJECT_NAME":"COSMOS 2529 (757)","OBJECT_ID":"2018-086A","EPOCH":"2026-04-23T06:40:08.654016","MEAN_MOTION":2.13101977,"ECCENTRICITY":0.00100942,"INCLINATION":64.2929,"RA_OF_ASC_NODE":194.4473,"ARG_OF_PERICENTER":254.9023,"MEAN_ANOMALY":105.0366,"EPHEMERIS_TYPE":0,"CLASSIFICATION_TYPE":"U","NORAD_CAT_ID":43687,"ELEMENT_SET_NO":999,"REV_AT_EPOCH":5811,"BSTAR":0,"MEAN_MOTION_DOT":-7.0e-8,"MEAN_MOTION_DDOT":0},{"OBJECT_NAME":"COSMOS 2534 (758)","OBJECT_ID":"2019-030A","EPOCH":"2026-04-27T09:35:01.248000","MEAN_MOTION":2.13102237,"ECCENTRICITY":0.0011922,"INCLINATION":64.3658,"RA_OF_ASC_NODE":194.326,"ARG_OF_PERICENTER":276.5401,"MEAN_ANOMALY":139.7535,"EPHEMERIS_TYPE":0,"CLASSIFICATION_TYPE":"U","NORAD_CAT_ID":44299,"ELEMENT_SET_NO":999,"REV_AT_EPOCH":5384,"BSTAR":0,"MEAN_MOTION_DOT":-2.0e-8,"MEAN_MOTION_DDOT":0},{"OBJECT_NAME":"COSMOS 2544 (759)","OBJECT_ID":"2019-088A","EPOCH":"2026-04-22T15:45:15.431040","MEAN_MOTION":2.13101758,"ECCENTRICITY":0.00151322,"INCLINATION":65.5361,"RA_OF_ASC_NODE":75.5832,"ARG_OF_PERICENTER":261.9687,"MEAN_ANOMALY":97.8399,"EPHEMERIS_TYPE":0,"CLASSIFICATION_TYPE":"U","NORAD_CAT_ID":44850,"ELEMENT_SET_NO":999,"REV_AT_EPOCH":4953,"BSTAR":0,"MEAN_MOTION_DOT":2.5e-7,"MEAN_MOTION_DDOT":0},{"OBJECT_NAME":"COSMOS 2545 (760)","OBJECT_ID":"2020-018A","EPOCH":"2026-04-27T01:48:13.773024","MEAN_MOTION":2.13102376,"ECCENTRICITY":0.0007174,"INCLINATION":64.386,"RA_OF_ASC_NODE":314.2154,"ARG_OF_PERICENTER":238.6817,"MEAN_ANOMALY":121.2732,"EPHEMERIS_TYPE":0,"CLASSIFICATION_TYPE":"U","NORAD_CAT_ID":45358,"ELEMENT_SET_NO":999,"REV_AT_EPOCH":4757,"BSTAR":0,"MEAN_MOTION_DOT":-3.2e-7,"MEAN_MOTION_DDOT":0},{"OBJECT_NAME":"COSMOS 2547 (705K)","OBJECT_ID":"2020-075A","EPOCH":"2026-04-27T06:20:27.869280","MEAN_MOTION":2.13100275,"ECCENTRICITY":0.0008364,"INCLINATION":64.5969,"RA_OF_ASC_NODE":194.1741,"ARG_OF_PERICENTER":236.7857,"MEAN_ANOMALY":123.1845,"EPHEMERIS_TYPE":0,"CLASSIFICATION_TYPE":"U","NORAD_CAT_ID":46805,"ELEMENT_SET_NO":999,"REV_AT_EPOCH":4282,"BSTAR":0,"MEAN_MOTION_DOT":-3.0e-8,"MEAN_MOTION_DDOT":0},{"OBJECT_NAME":"COSMOS 2557 (706K)","OBJECT_ID":"2022-075A","EPOCH":"2026-04-26T23:01:53.340960","MEAN_MOTION":2.13101838,"ECCENTRICITY":0.00101962,"INCLINATION":64.3278,"RA_OF_ASC_NODE":316.2899,"ARG_OF_PERICENTER":281.3644,"MEAN_ANOMALY":78.549,"EPHEMERIS_TYPE":0,"CLASSIFICATION_TYPE":"U","NORAD_CAT_ID":52984,"ELEMENT_SET_NO":999,"REV_AT_EPOCH":2962,"BSTAR":0,"MEAN_MOTION_DOT":-3.3e-7,"MEAN_MOTION_DDOT":0},{"OBJECT_NAME":"COSMOS 2559 (707K)","OBJECT_ID":"2022-130A","EPOCH":"2026-04-25T20:10:29.959392","MEAN_MOTION":2.13101453,"ECCENTRICITY":0.00113649,"INCLINATION":64.3018,"RA_OF_ASC_NODE":316.4145,"ARG_OF_PERICENTER":176.1051,"MEAN_ANOMALY":183.932,"EPHEMERIS_TYPE":0,"CLASSIFICATION_TYPE":"U","NORAD_CAT_ID":54031,"ELEMENT_SET_NO":999,"REV_AT_EPOCH":2757,"BSTAR":0,"MEAN_MOTION_DOT":-2.9e-7,"MEAN_MOTION_DDOT":0},{"OBJECT_NAME":"COSMOS 2564 (761)","OBJECT_ID":"2022-161A","EPOCH":"2026-04-27T02:12:12.015936","MEAN_MOTION":2.13101958,"ECCENTRICITY":0.00110532,"INCLINATION":64.739,"RA_OF_ASC_NODE":194.4071,"ARG_OF_PERICENTER":219.74,"MEAN_ANOMALY":140.2284,"EPHEMERIS_TYPE":0,"CLASSIFICATION_TYPE":"U","NORAD_CAT_ID":54377,"ELEMENT_SET_NO":999,"REV_AT_EPOCH":2654,"BSTAR":0,"MEAN_MOTION_DOT":-5.0e-8,"MEAN_MOTION_DDOT":0},{"OBJECT_NAME":"COSMOS 2569 (703K)","OBJECT_ID":"2023-114A","EPOCH":"2026-04-27T02:30:10.694880","MEAN_MOTION":2.13103778,"ECCENTRICITY":0.0012393,"INCLINATION":65.2749,"RA_OF_ASC_NODE":74.342,"ARG_OF_PERICENTER":295.4044,"MEAN_ANOMALY":64.4431,"EPHEMERIS_TYPE":0,"CLASSIFICATION_TYPE":"U","NORAD_CAT_ID":57517,"ELEMENT_SET_NO":999,"REV_AT_EPOCH":2117,"BSTAR":0,"MEAN_MOTION_DOT":-4.0e-8,"MEAN_MOTION_DDOT":0},{"OBJECT_NAME":"COSMOS 2584 (704K)","OBJECT_ID":"2025-042A","EPOCH":"2026-04-26T23:47:18.747744","MEAN_MOTION":2.13103661,"ECCENTRICITY":0.00067402,"INCLINATION":65.057,"RA_OF_ASC_NODE":74.5414,"ARG_OF_PERICENTER":237.4306,"MEAN_ANOMALY":122.4806,"EPHEMERIS_TYPE":0,"CLASSIFICATION_TYPE":"U","NORAD_CAT_ID":63130,"ELEMENT_SET_NO":999,"REV_AT_EPOCH":895,"BSTAR":0,"MEAN_MOTION_DOT":-2.0e-8,"MEAN_MOTION_DDOT":0},{"OBJECT_NAME":"COSMOS 2596 (708K)","OBJECT_ID":"2025-206B","EPOCH":"2026-04-26T03:19:35.330304","MEAN_MOTION":2.13100475,"ECCENTRICITY":0.00115765,"INCLINATION":64.6645,"RA_OF_ASC_NODE":316.797,"ARG_OF_PERICENTER":316.957,"MEAN_ANOMALY":225.8124,"EPHEMERIS_TYPE":0,"CLASSIFICATION_TYPE":"U","NORAD_CAT_ID":65590,"ELEMENT_SET_NO":999,"REV_AT_EPOCH":480,"BSTAR":0,"MEAN_MOTION_DOT":-2.9e-7,"MEAN_MOTION_DDOT":0}]
